SCD 1                   
1 22490U 93009B   26162.65764919 -.00000233  00000+0 -11399-3 0  9997
2 22490  24.9686 241.7201 0042167  79.5043  53.5703 14.46116450760311
TECHSAT 1B (GO-32)      
1 25397U 98043D   26162.93664952  .00000044  00000+0  39144-4 0  9993
2 25397  99.0065 155.5629 0000754 175.7521 184.3664 14.24427405450581
SCD 2                   
1 25504U 98060A   26162.15226959  .00000361  00000+0  50104-4 0  9998
2 25504  24.9944 109.3743 0016932  60.0003 324.7192 14.45523442459456
DLR-TUBSAT              
1 25757U 99029B   26162.98888239  .00000074  00000+0  30050-4 0  9999
2 25757  98.6694 158.3219 0014377  10.9409 349.2095 14.52425567432499
TERRA                   
1 25994U 99068A   26162.96169045  .00000319  00000+0  73983-4 0  9994
2 25994  97.9458 212.7150 0001181 210.9434 272.5846 14.61098896408845
MAROC-TUBSAT            
1 27004U 01056D   26162.97545236 -.00000012  00000+0  39097-4 0  9998
2 27004  99.8079 339.7369 0020172 154.3290 323.8514 13.70262282225472
AQUA                    
1 27424U 02022A   26162.92162943  .00000643  00000+0  13765-3 0  9995
2 27424  98.4275 132.0993 0001312  53.2172   7.4768 14.62150095282502
SHIYAN-1 (SY-1)         
1 28220U 04012A   26162.76839486  .00012830  00000+0  39691-3 0  9993
2 28220  97.8694 240.4849 0006042  50.2171 309.9601 15.33623766210269
AURA                    
1 28376U 04026A   26162.91920900  .00000647  00000+0  14068-3 0  9993
2 28376  98.3416 119.3290 0001275  72.6416 287.4924 14.61321149165443
IRS-P5 (CARTOSAT-1)     
1 28649U 05017A   26162.97802839  .00001008  00000+0  10719-3 0  9994
2 28649  97.5308 186.2788 0002677  87.1293 273.0233 14.91035289143049
SINAH 1                 
1 28893U 05043D   26162.92871167  .00000250  00000+0  56926-4 0  9998
2 28893  98.2853 297.2200 0013212 294.8869  65.0959 14.64154142 99750
RESURS-DK 1             
1 29228U 06021A   26162.94537913  .00002187  00000+0  12897-3 0  9997
2 29228  69.9338 353.1217 0006700 295.8467  64.2008 15.13194127101780
ARIRANG-2 (KOMPSAT-2)   
1 29268U 06031A   26162.97601263  .00000543  00000+0  11036-3 0  9993
2 29268  97.8310 347.6755 0015952  89.5471  33.9684 14.64657833 60714
LAPAN-TUBSAT            
1 29709U 07001A   26163.00197439  .00000093  00000+0  17289-4 0  9998
2 29709  98.1343 162.1088 0011507 196.8664 163.2170 14.85943144 50386
HAIYANG-1B              
1 31113U 07010A   26162.90078964  .00000072  00000+0  43202-4 0  9990
2 31113  98.3492 144.9510 0012696 212.7435 147.2963 14.31025579999879
COSMO-SKYMED 1          
1 31598U 07023A   26162.98850552  .00002044  00000+0  18247-3 0  9991
2 31598  97.8847 354.8014 0000998  89.5960 270.5376 14.97074685 29012
TERRASAR-X              
1 31698U 07026A   26160.28753291  .00000433  00000+0  23833-4 0  9996
2 31698  97.4448 168.1064 0001684  80.8129 279.3296 15.19149435 52027
WORLDVIEW-1 (WV-1)      
1 32060U 07041A   26162.90888866  .00005191  00000+0  21589-3 0  9996
2 32060  97.3866 282.7288 0002739  36.0335 324.1087 15.24208329 42074
YAOGAN-3                
1 32289U 07055A   26162.95906292  .00001708  00000+0  17950-3 0  9990
2 32289  97.8159 192.8880 0001829  87.2261 272.9166 14.90759023  5094
COSMO-SKYMED 2          
1 32376U 07059A   26162.96272935  .00000369  00000+0  52956-4 0  9990
2 32376  97.8885 346.6366 0001379  85.9957 274.1414 14.82150698  1238
RADARSAT-2              
1 32382U 07061A   26162.99990846 -.00000086  00000+0 -16426-4 0  9991
2 32382  98.5781 170.0063 0001306  83.5596 276.5735 14.29983338965219
CARTOSAT-2A             
1 32783U 08021A   26162.97323546  .00000991  00000+0  13996-3 0  9999
2 32783  97.7641 211.8596 0012963 124.1053 236.1391 14.79232089978035
HUANJING 1A (HJ-1A)     
1 33320U 08041A   26162.97437828  .00000767  00000+0  98144-4 0  9998
2 33320  97.6678 149.0140 0019535 151.2324 208.9973 14.83972875957638
HUANJING 1B (HJ-1B)     
1 33321U 08041B   26162.94108850  .00001161  00000+0  14661-3 0  9996
2 33321  97.6516 152.1698 0035584 198.3111 161.6825 14.83309830957637
GEOEYE 1                
1 33331U 08042A   26162.89180487  .00000365  00000+0  77382-4 0  9993
2 33331  98.1235 236.8900 0005535  82.1999 277.9833 14.64720795949373
THEOS                   
1 33396U 08049A   26162.96649767 -.00000251  00000+0 -97812-4 0  9996
2 33396  98.5578 220.4195 0001272  80.1127 280.0194 14.20131583917225
COSMO-SKYMED 3          
1 33412U 08054A   26162.89745707  .00003583  00000+0  24375-3 0  9996
2 33412  97.8288  21.3812 0014420 286.6629  73.3015 15.06916036956145
YAOGAN-4                
1 33446U 08061A   26162.77004668  .00000815  00000+0  10626-3 0  9991
2 33446  97.9309  96.3204 0015777  88.4224 271.8797 14.83189739944863
GOSAT (IBUKI)           
1 33492U 09002A   26162.88833285  .00000940  00000+0  17423-3 0  9996
2 33492  98.0884 274.0358 0001602  87.9866 272.1522 14.67540316930686
DEIMOS-1                
1 35681U 09041A   26162.96368350  .00000702  00000+0  11079-3 0  9993
2 35681  97.7396 320.4182 0001297 137.5361 222.5950 14.75233387906116
